start=new Date('2022-06-27T00:00:00.000Z').valueOf();
sats=[{"MEAN_ELEMENT_THEORY":"SGP4","CLASSIFICATION_TYPE":"U","NORAD_CAT_ID":"44238","DECAY_DATE":null,"TLE_LINE1":"1 44238U 19029D   22177.90993515  .00074193  00000-0  20513-2 0  9999","PERIAPSIS":"453.759","SITE":"AFETR","ARG_OF_PERICENTER":"90.9159","MEAN_MOTION_DOT":"0.00074193","GP_ID":"206924028","MEAN_MOTION":"15.36374073","EPOCH":"2022-06-26T21:50:18.396960","OBJECT_NAME":"STARLINK-24","APOAPSIS":"459.929","TIME_SYSTEM":"UTC","ECCENTRICITY":"0.00045140","PERIOD":"93.727","MEAN_ANOMALY":"269.2360","OBJECT_TYPE":"PAYLOAD","RCS_SIZE":"LARGE","BSTAR":"0.00205130000000","INCLINATION":"53.0062","RA_OF_ASC_NODE":"65.8456","SEMIMAJOR_AXIS":"6834.979","REV_AT_EPOCH":"16968","MEAN_MOTION_DDOT":"0.0000000000000","EPHEMERIS_TYPE":"0","CENTER_NAME":"EARTH","OBJECT_ID":"2019-029D","REF_FRAME":"TEME","LAUNCH_DATE":"2019-05-24","FILE":"3503441","TLE_LINE2":"2 44238  53.0062  65.8456 0004514  90.9159 269.2360 15.36374073169687","COUNTRY_CODE":"US","ELEMENT_SET_NO":"999"},{"ELEMENT_SET_NO":"999","TLE_LINE2":"2 44249  52.9667  16.4151 0010347 217.5747 142.4543 15.63660247172100","FILE":"3503311","COUNTRY_CODE":"US","LAUNCH_DATE":"2019-05-24","REF_FRAME":"TEME","OBJECT_ID":"2019-029Q","CENTER_NAME":"EARTH","EPHEMERIS_TYPE":"0","MEAN_MOTION_DDOT":"0.0000000000000","REV_AT_EPOCH":"17210","SEMIMAJOR_AXIS":"6755.232","RA_OF_ASC_NODE":"16.4151","INCLINATION":"52.9667","BSTAR":"0.00168880000000","RCS_SIZE":"LARGE","OBJECT_TYPE":"PAYLOAD","MEAN_ANOMALY":"142.4543","PERIOD":"92.092","ECCENTRICITY":"0.00103470","APOAPSIS":"384.086","TIME_SYSTEM":"UTC","OBJECT_NAME":"STARLINK-61","EPOCH":"2022-06-26T19:44:33.312192","MEAN_MOTION":"15.63660247","GP_ID":"206901267","MEAN_MOTION_DOT":"0.00163321","PERIAPSIS":"370.107","SITE":"AFETR","ARG_OF_PERICENTER":"217.5747","TLE_LINE1":"1 44249U 19029Q   22177.82260778  .00163321  00000-0  16888-2 0  9992","NORAD_CAT_ID":"44249","DECAY_DATE":null,"CLASSIFICATION_TYPE":"U","MEAN_ELEMENT_THEORY":"SGP4"},{"MEAN_MOTION_DOT":"0.00068290","GP_ID":"206923049","DECAY_DATE":null,"NORAD_CAT_ID":"44252","TLE_LINE1":"1 44252U 19029T   22177.89838321  .00068290  00000-0  17509-2 0  9998","PERIAPSIS":"446.605","SITE":"AFETR","ARG_OF_PERICENTER":"77.7808","MEAN_ELEMENT_THEORY":"SGP4","CLASSIFICATION_TYPE":"U","TIME_SYSTEM":"UTC","APOAPSIS":"453.057","ECCENTRICITY":"0.00047240","MEAN_MOTION":"15.38741743","EPOCH":"2022-06-26T21:33:40.309344","OBJECT_NAME":"STARLINK-71","RA_OF_ASC_NODE":"61.4339","REV_AT_EPOCH":"17038","SEMIMAJOR_AXIS":"6827.966","BSTAR":"0.00175090000000","INCLINATION":"52.9966","OBJECT_TYPE":"PAYLOAD","RCS_SIZE":"LARGE","PERIOD":"93.583","MEAN_ANOMALY":"282.3723","COUNTRY_CODE":"US","TLE_LINE2":"2 44252  52.9966  61.4339 0004724  77.7808 282.3723 15.38741743170385","FILE":"3503441","ELEMENT_SET_NO":"999","REF_FRAME":"TEME","LAUNCH_DATE":"2019-05-24","CENTER_NAME":"EARTH","EPHEMERIS_TYPE":"0","OBJECT_ID":"2019-029T","MEAN_MOTION_DDOT":"0.0000000000000"},{"REF_FRAME":"TEME","LAUNCH_DATE":"2019-11-11","ELEMENT_SET_NO":"999","FILE":"3503441","TLE_LINE2":"2 44713  53.0555 135.2881 0001828  67.9367 292.1816 15.06401731144993","COUNTRY_CODE":"US","MEAN_MOTION_DDOT":"0.0000000000000","CENTER_NAME":"EARTH","EPHEMERIS_TYPE":"0","OBJECT_ID":"2019-074A","BSTAR":"-0.00002310600000","INCLINATION":"53.0555","SEMIMAJOR_AXIS":"6925.343","REV_AT_EPOCH":"14499","RA_OF_ASC_NODE":"135.2881","PERIOD":"95.592","MEAN_ANOMALY":"292.1816","RCS_SIZE":"LARGE","OBJECT_TYPE":"PAYLOAD","ECCENTRICITY":"0.00018280","APOAPSIS":"548.474","TIME_SYSTEM":"UTC","EPOCH":"2022-06-26T20:11:48.383808","OBJECT_NAME":"STARLINK-1007","MEAN_MOTION":"15.06401731","GP_ID":"206923336","MEAN_MOTION_DOT":"-0.00000626","CLASSIFICATION_TYPE":"U","MEAN_ELEMENT_THEORY":"SGP4","DECAY_DATE":null,"NORAD_CAT_ID":"44713","ARG_OF_PERICENTER":"67.9367","SITE":"AFETR","PERIAPSIS":"545.942","TLE_LINE1":"1 44713U 19074A   22177.84153222 -.00000626  00000-0 -23106-4 0  9998"},{"ELEMENT_SET_NO":"999","TLE_LINE2":"2 44714  53.0534 136.2979 0001999  62.7572 297.3620 15.06399893144962","FILE":"3503441","COUNTRY_CODE":"US","REF_FRAME":"TEME","LAUNCH_DATE":"2019-11-11","CENTER_NAME":"EARTH","EPHEMERIS_TYPE":"0","OBJECT_ID":"2019-074B","MEAN_MOTION_DDOT":"0.0000000000000","SEMIMAJOR_AXIS":"6925.349","REV_AT_EPOCH":"14496","RA_OF_ASC_NODE":"136.2979","BSTAR":"0.00009866000000","INCLINATION":"53.0534","RCS_SIZE":"LARGE","OBJECT_TYPE":"PAYLOAD","PERIOD":"95.592","MEAN_ANOMALY":"297.3620","ECCENTRICITY":"0.00019990","TIME_SYSTEM":"UTC","APOAPSIS":"548.598","OBJECT_NAME":"STARLINK-1008","EPOCH":"2022-06-26T14:54:41.577984","MEAN_MOTION":"15.06399893","GP_ID":"206923087","MEAN_MOTION_DOT":"0.00001188","NORAD_CAT_ID":"44714","DECAY_DATE":null,"PERIAPSIS":"545.830","SITE":"AFETR","ARG_OF_PERICENTER":"62.7572","TLE_LINE1":"1 44714U 19074B   22177.62131456  .00001188  00000-0  98660-4 0  9999","CLASSIFICATION_TYPE":"U","MEAN_ELEMENT_THEORY":"SGP4"},{"APOAPSIS":"548.267","TIME_SYSTEM":"UTC","ECCENTRICITY":"0.00014790","MEAN_MOTION":"15.06390335","OBJECT_NAME":"STARLINK-1009","EPOCH":"2022-06-26T14:38:47.334912","MEAN_MOTION_DOT":"-0.00000075","GP_ID":"206924338","CLASSIFICATION_TYPE":"U","MEAN_ELEMENT_THEORY":"SGP4","NORAD_CAT_ID":"44715","DECAY_DATE":null,"TLE_LINE1":"1 44715U 19074C   22177.61027008 -.00000075  00000-0  13859-4 0  9998","PERIAPSIS":"546.219","SITE":"AFETR","ARG_OF_PERICENTER":"73.6546","REF_FRAME":"TEME","LAUNCH_DATE":"2019-11-11","FILE":"3503441","TLE_LINE2":"2 44715  53.0557 136.3502 0001479  73.6546 286.4606 15.06390335144950","COUNTRY_CODE":"US","ELEMENT_SET_NO":"999","MEAN_MOTION_DDOT":"0.0000000000000","CENTER_NAME":"EARTH","EPHEMERIS_TYPE":"0","OBJECT_ID":"2019-074C","BSTAR":"0.00001385900000","INCLINATION":"53.0557","RA_OF_ASC_NODE":"136.3502","REV_AT_EPOCH":"14495","SEMIMAJOR_AXIS":"6925.378","PERIOD":"95.593","MEAN_ANOMALY":"286.4606","OBJECT_TYPE":"PAYLOAD","RCS_SIZE":"LARGE"},{"MEAN_MOTION_DOT":"-0.00000008","GP_ID":"206924566","TLE_LINE1":"1 44716U 19074D   22177.82773132 -.00000008  00000-0  18357-4 0  9992","ARG_OF_PERICENTER":"69.6176","SITE":"AFETR","PERIAPSIS":"546.096","NORAD_CAT_ID":"44716","DECAY_DATE":null,"CLASSIFICATION_TYPE":"U","MEAN_ELEMENT_THEORY":"SGP4","APOAPSIS":"548.323","TIME_SYSTEM":"UTC","ECCENTRICITY":"0.00016080","MEAN_MOTION":"15.06401321","OBJECT_NAME":"STARLINK-1010","EPOCH":"2022-06-26T19:51:55.986048","RA_OF_ASC_NODE":"135.3767","REV_AT_EPOCH":"14497","SEMIMAJOR_AXIS":"6925.345","INCLINATION":"53.0543","BSTAR":"0.00001835700000","OBJECT_TYPE":"PAYLOAD","RCS_SIZE":"LARGE","MEAN_ANOMALY":"290.4986","PERIOD":"95.592","COUNTRY_CODE":"US","TLE_LINE2":"2 44716  53.0543 135.3767 0001608  69.6176 290.4986 15.06401321144972","FILE":"3503441","ELEMENT_SET_NO":"999","LAUNCH_DATE":"2019-11-11","REF_FRAME":"TEME","OBJECT_ID":"2019-074D","EPHEMERIS_TYPE":"0","CENTER_NAME":"EARTH","MEAN_MOTION_DDOT":"0.0000000000000"},{"OBJECT_NAME":"STARLINK-1011","EPOCH":"2022-06-26T21:24:49.524768","MEAN_MOTION":"15.06395014","ECCENTRICITY":"0.00024000","TIME_SYSTEM":"UTC","APOAPSIS":"548.891","CLASSIFICATION_TYPE":"U","MEAN_ELEMENT_THEORY":"SGP4","NORAD_CAT_ID":"44717","DECAY_DATE":null,"SITE":"AFETR","PERIAPSIS":"545.567","ARG_OF_PERICENTER":"48.8525","TLE_LINE1":"1 44717U 19074E   22177.89223987  .00001339  00000-0  10882-3 0  9999","GP_ID":"206922837","MEAN_MOTION_DOT":"0.00001339","MEAN_MOTION_DDOT":"0.0000000000000","EPHEMERIS_TYPE":"0","CENTER_NAME":"EARTH","OBJECT_ID":"2019-074E","REF_FRAME":"TEME","LAUNCH_DATE":"2019-11-11","ELEMENT_SET_NO":"999","COUNTRY_CODE":"US","TLE_LINE2":"2 44717  53.0546 155.0626 0002400  48.8525 311.2671 15.06395014144724","FILE":"3503441","PERIOD":"95.592","MEAN_ANOMALY":"311.2671","RCS_SIZE":"LARGE","OBJECT_TYPE":"PAYLOAD","BSTAR":"0.00010882000000","INCLINATION":"53.0546","REV_AT_EPOCH":"14472","SEMIMAJOR_AXIS":"6925.364","RA_OF_ASC_NODE":"155.0626"},{"ELEMENT_SET_NO":"999","TLE_LINE2":"2 44718  53.0554 135.2082 0001552  69.6427 290.4729 15.06387748144995","FILE":"3503441","COUNTRY_CODE":"US","LAUNCH_DATE":"2019-11-11","REF_FRAME":"TEME","OBJECT_ID":"2019-074F","CENTER_NAME":"EARTH","EPHEMERIS_TYPE":"0","MEAN_MOTION_DDOT":"0.0000000000000","REV_AT_EPOCH":"14499","SEMIMAJOR_AXIS":"6925.386","RA_OF_ASC_NODE":"135.2082","INCLINATION":"53.0554","BSTAR":"0.00016520000000","RCS_SIZE":"LARGE","OBJECT_TYPE":"PAYLOAD","MEAN_ANOMALY":"290.4729","PERIOD":"95.593","ECCENTRICITY":"0.00015520","TIME_SYSTEM":"UTC","APOAPSIS":"548.326","EPOCH":"2022-06-26T20:45:02.537280","OBJECT_NAME":"STARLINK-1012","MEAN_MOTION":"15.06387748","GP_ID":"206923587","MEAN_MOTION_DOT":"0.00002179","ARG_OF_PERICENTER":"69.6427","SITE":"AFETR","PERIAPSIS":"546.176","TLE_LINE1":"1 44718U 19074F   22177.86461270  .00002179  00000-0  16520-3 0  9994","NORAD_CAT_ID":"44718","DECAY_DATE":null,"MEAN_ELEMENT_THEORY":"SGP4","CLASSIFICATION_TYPE":"U"},{"MEAN_MOTION_DDOT":"0.0000000000000","CENTER_NAME":"EARTH","EPHEMERIS_TYPE":"0","OBJECT_ID":"2019-074G","REF_FRAME":"TEME","LAUNCH_DATE":"2019-11-11","ELEMENT_SET_NO":"999","TLE_LINE2":"2 44719  53.0544 136.3639 0002193  60.2774 299.8433 15.06391911146083","FILE":"3503441","COUNTRY_CODE":"US","PERIOD":"95.593","MEAN_ANOMALY":"299.8433","RCS_SIZE":"LARGE","OBJECT_TYPE":"PAYLOAD","BSTAR":"0.00002596000000","INCLINATION":"53.0544","REV_AT_EPOCH":"14608","SEMIMAJOR_AXIS":"6925.373","RA_OF_ASC_NODE":"136.3639","EPOCH":"2022-06-26T14:33:28.887840","OBJECT_NAME":"STARLINK-1013","MEAN_MOTION":"15.06391911","ECCENTRICITY":"0.00021930","APOAPSIS":"548.757","TIME_SYSTEM":"UTC","CLASSIFICATION_TYPE":"U","MEAN_ELEMENT_THEORY":"SGP4","DECAY_DATE":null,"NORAD_CAT_ID":"44719","SITE":"AFETR","PERIAPSIS":"545.720","ARG_OF_PERICENTER":"60.2774","TLE_LINE1":"1 44719U 19074G   22177.60658435  .00000105  00000-0  25960-4 0  9994","GP_ID":"206923839","MEAN_MOTION_DOT":"0.00000105"}];
